id,name,name_en,name_kana,lat,lon,place_type,is_in,old_name,all_tags
57544160,"田町","Tamachi","",35.6455451,139.7485367,locality,"","","{""name"":""田町"",""name:en"":""Tamachi"",""name:es"":""Tamachi"",""name:ja"":""田町"",""name:ru"":""Тамати"",""place"":""locality""}"
1655964253,"吉野梅郷","Yoshino Baigo","",35.7854075,139.2209435,locality,"","","{""name"":""吉野梅郷"",""name:en"":""Yoshino Baigo"",""name:ja"":""吉野梅郷"",""place"":""locality"",""tourism"":""yes"",""wikidata"":""Q11414471"",""wikipedia"":""ja:吉野梅郷""}"
1657233010,"岩蔵温泉郷","Iwakura Onsen-kyo","",35.8255643,139.2904807,locality,"","","{""name"":""岩蔵温泉郷"",""name:en"":""Iwakura Onsen-kyo"",""name:ja"":""岩蔵温泉郷"",""place"":""locality"",""website"":""http://iwakuraonsen.jp/""}"
1978964492,"","","",35.7197426,139.2303935,locality,"","芹沢","{""old_name"":""芹沢"",""place"":""locality""}"
1978964497,"","","",35.7192026,139.2308977,locality,"","小峰","{""old_name"":""小峰"",""place"":""locality""}"
1978964501,"","","",35.7212498,139.2345565,locality,"","前沢","{""old_name"":""前沢"",""place"":""locality""}"
1978973471,"","","",35.7166395,139.235412,locality,"","高野","{""old_name"":""高野"",""place"":""locality""}"
1978973476,"","","",35.7230315,139.2326951,locality,"","東","{""old_name"":""東"",""place"":""locality""}"
1978973564,"","","",35.7202634,139.2364744,locality,"","安戸","{""old_name"":""安戸"",""place"":""locality""}"
1978973614,"","","",35.7217614,139.236399,locality,"","天王沢","{""old_name"":""天王沢"",""place"":""locality""}"
2362796467,"ひよどり沢","","",35.6739993,139.339559,locality,"","","{""name"":""ひよどり沢"",""place"":""locality""}"
2362796468,"くぬぎ平","","",35.6722713,139.3418311,locality,"","","{""name"":""くぬぎ平"",""place"":""locality""}"
2362796469,"みずき平","","",35.6736309,139.341123,locality,"","","{""name"":""みずき平"",""place"":""locality""}"
2362796470,"ひよどり山","","",35.6755705,139.3424731,locality,"","","{""name"":""ひよどり山"",""place"":""locality""}"
2362796471,"水源涵養林","","",35.6744613,139.3388885,locality,"","","{""name"":""水源涵養林"",""place"":""locality""}"
2402661813,"草堂ノ入","","",35.7341494,139.2396981,locality,"","","{""name"":""草堂ノ入"",""place"":""locality""}"
2402681559,"中央湿地","","",35.7354965,139.2417527,locality,"","","{""name"":""中央湿地"",""place"":""locality""}"
2402681560,"富田ノ入","","",35.7352309,139.2393177,locality,"","","{""name"":""富田ノ入"",""place"":""locality""}"
2402687748,"下ノ川","","",35.7357852,139.2438581,locality,"","","{""name"":""下ノ川"",""place"":""locality""}"
2402687751,"宮田西沢","","",35.7367723,139.2409265,locality,"","","{""name"":""宮田西沢"",""place"":""locality""}"
2402687752,"宮田東沢","","",35.7365437,139.2419243,locality,"","","{""name"":""宮田東沢"",""place"":""locality""}"
2402687756,"荒田ノ入","","",35.7370771,139.2396074,locality,"","","{""name"":""荒田ノ入"",""place"":""locality""}"
2442452449,"鳩ノ巣渓谷","Hatonosu Valley","",35.8131774,139.1291762,locality,"","","{""name"":""鳩ノ巣渓谷"",""name:en"":""Hatonosu Valley"",""name:ja"":""鳩ノ巣渓谷"",""place"":""locality"",""wikidata"":""Q11675195"",""wikipedia"":""ja:鳩ノ巣渓谷""}"
2571008577,"芋坂","Imosaka","",35.7266876,139.7735296,locality,"","","{""name"":""芋坂"",""name:en"":""Imosaka"",""place"":""locality""}"
2906663008,"大字五ノ神字武蔵野","","",35.769146,139.3303125,locality,"","","{""name"":""大字五ノ神字武蔵野"",""place"":""locality"",""ref"":""132270015000"",""source"":""ISJ 2012""}"
2906663013,"大字川崎字武蔵野","Oaza Kawasaki-aza Musashino","",35.7625232,139.3345781,locality,"","","{""name"":""大字川崎字武蔵野"",""name:en"":""Oaza Kawasaki-aza Musashino"",""place"":""locality"",""ref"":""132270016000"",""source"":""ISJ 2012""}"
2906663021,"大字羽字武蔵野","","",35.7668401,139.3309346,locality,"","","{""name"":""大字羽字武蔵野"",""place"":""locality"",""ref"":""132270014000"",""source"":""ISJ 2012""}"
2906663022,"大字羽字玉川附","","",35.7551111,139.3029956,locality,"","","{""name"":""大字羽字玉川附"",""place"":""locality"",""ref"":""132270013000"",""source"":""ISJ 2012""}"
2906663023,"大字羽字羽ケ上","","",35.7689124,139.3057722,locality,"","","{""name"":""大字羽字羽ケ上"",""place"":""locality"",""ref"":""132270012000"",""source"":""ISJ 2012""}"
2977479380,"関東ふれあいの道;三沢峠","Misawa Pass","",35.6021612,139.2634341,locality,"","","{""information"":""board"",""name"":""関東ふれあいの道;三沢峠"",""name:en"":""Misawa Pass"",""name:ja_rm"":""Misawa Touge"",""place"":""locality"",""source"":""GPS"",""tourism"":""information""}"
3914881285,"巾着田","Kinchakuda","きんちゃくだ",35.8831866,139.3110516,locality,"","","{""name"":""巾着田"",""name:en"":""Kinchakuda"",""name:fr"":""Kinchakuda"",""name:ja"":""巾着田"",""name:ja-Hira"":""きんちゃくだ"",""name:ja-Latn"":""Kinchakuda"",""place"":""locality"",""wikidata"":""Q11479964"",""wikimedia_commons"":""Category:Kinchakuda"",""wikipedia"":""ja:巾着田""}"
3997059716,"御岳渓谷","Mitake Gorge","",35.8009016,139.1848433,locality,"","","{""name"":""御岳渓谷"",""name:en"":""Mitake Gorge"",""name:ja"":""御岳渓谷"",""place"":""locality""}"
5296974307,"原宿","Harajuku","",35.6687049,139.7053357,locality,"","","{""name"":""原宿"",""name:en"":""Harajuku"",""name:es"":""Harajuku"",""name:fr"":""Harajuku"",""name:it"":""Harajuku"",""name:ja"":""原宿"",""name:ja-Latn"":""Harajuku"",""name:zh"":""原宿"",""place"":""locality"",""wikidata"":""Q746573"",""wikipedia"":""ja:原宿""}"
5500338625,"ローラー 滑り台","","",35.5595937,139.4814977,locality,"","","{""name"":""ローラー 滑り台"",""place"":""locality""}"
6484427285,"渋谷百軒店","Hyakkendana","しぶやひゃっけんだな",35.6589174,139.6964855,locality,"","","{""name"":""渋谷百軒店"",""name:en"":""Hyakkendana"",""name:ja"":""渋谷百軒店"",""name:ja-Hira"":""しぶやひゃっけんだな"",""place"":""locality""}"
6808377675,"下北沢","Shimokitazawa","しもきたざわ",35.6616779,139.6663345,locality,"","","{""alt_name"":""北沢五丁目"",""name"":""下北沢"",""name:en"":""Shimokitazawa"",""name:es"":""Shimokitazawa"",""name:fr"":""Shimokitazawa"",""name:ja-Hira"":""しもきたざわ"",""name:ja-Latn"":""Shimokitasawa"",""name:ko"":""시모키타자와"",""place"":""locality"",""postal_code"":""155-0031"",""wikidata"":""Q735384"",""wikimedia_commons"":""Category:Shimokitazawa"",""wikipedia"":""ja:下北沢""}"
7159763175,"そよぎの丘","","",35.7025005,139.4074903,locality,"","","{""name"":""そよぎの丘"",""place"":""locality""}"
7159763182,"小さな池の間","","",35.7041471,139.4081227,locality,"","","{""name"":""小さな池の間"",""natural"":""water"",""place"":""locality"",""ref"":""H""}"
7159763183,"シンボルツリーの間","","",35.7040551,139.4079316,locality,"","","{""name"":""シンボルツリーの間"",""place"":""locality"",""ref"":""G""}"
7159800485,"エクボの間","","",35.7038438,139.407898,locality,"","","{""name"":""エクボの間"",""place"":""locality"",""ref"":""F""}"
7159800486,"実りの間","","",35.7035481,139.407898,locality,"","","{""landuse"":""farmland"",""name"":""実りの間"",""place"":""locality"",""ref"":""E""}"
7159800487,"小さな丘の間","","",35.7034136,139.4079544,locality,"","","{""name"":""小さな丘の間"",""place"":""locality"",""ref"":""D""}"
7159800488,"花と香りの間","","",35.7034125,139.4078082,locality,"","","{""leisure"":""garden"",""name"":""花と香りの間"",""place"":""locality"",""ref"":""C""}"
7159800489,"大広間","","",35.7033173,139.4079296,locality,"","","{""landuse"":""recreation_ground"",""name"":""大広間"",""place"":""locality"",""ref"":""B""}"
7159800490,"エントランス(出会いの間)","","",35.7029587,139.4079299,locality,"","","{""entrance"":""yes"",""name"":""エントランス(出会いの間)"",""place"":""locality"",""ref"":""A""}"
9384728290,"中沢峠","Nakazawa Pass","",35.6090808,139.2379275,locality,"","","{""name"":""中沢峠"",""name:en"":""Nakazawa Pass"",""name:ja_rm"":""Nakazawa Touge"",""place"":""locality""}"
9384767386,"西山峠","Nishiyama Pass","",35.6018059,139.2527172,locality,"","","{""name"":""西山峠"",""name:en"":""Nishiyama Pass"",""name:ja_rm"":""Nishiyama Touge"",""place"":""locality""}"
9402135246,"三沢峠","Misawa Pass","",35.602151,139.2633682,locality,"","","{""name"":""三沢峠"",""name:en"":""Misawa Pass"",""name:ja_rm"":""Misawa Touge"",""place"":""locality""}"
11906613983,"トゥモローランド","Tomorrowland","",35.6328937,139.8783262,locality,"","","{""name"":""トゥモローランド"",""name:en"":""Tomorrowland"",""name:ja"":""トゥモローランド"",""place"":""locality"",""wikidata"":""Q2804265"",""wikipedia"":""ja:トゥモローランド""}"
11972216837,"アドベンチャーランド","Adventureland","",35.6333732,139.8814042,locality,"","","{""name"":""アドベンチャーランド"",""name:en"":""Adventureland"",""name:ja"":""アドベンチャーランド"",""place"":""locality"",""wikidata"":""Q2825400"",""wikipedia"":""ja:アドベンチャーランド""}"
12022612272,"ワールドバザール","World Bazaar","",35.6343228,139.8795861,locality,"","","{""name"":""ワールドバザール"",""name:en"":""World Bazaar"",""name:ja"":""ワールドバザール"",""place"":""locality"",""wikidata"":""Q24887256"",""wikipedia"":""ja:ワールドバザール""}"
12030715268,"ファンタジーランド","Fantasyland","",35.631771,139.8810235,locality,"","","{""name"":""ファンタジーランド"",""name:en"":""Fantasyland"",""name:ja"":""ファンタジーランド"",""place"":""locality""}"
12030803669,"ウエスタンランド","Westernland","",35.6322167,139.8828592,locality,"","","{""name"":""ウエスタンランド"",""name:en"":""Westernland"",""name:ja"":""ウエスタンランド"",""place"":""locality"",""wikidata"":""Q732575"",""wikipedia"":""ja:ウエスタンランド""}"
12030803670,"トゥーンタウン","Toontown","",35.6302277,139.8792066,locality,"","","{""name"":""トゥーンタウン"",""name:en"":""Toontown"",""name:ja"":""トゥーンタウン"",""place"":""locality""}"
12030803671,"クリッターカントリー","Critter Country","",35.6305773,139.8834651,locality,"","","{""name"":""クリッターカントリー"",""name:en"":""Critter Country"",""name:ja"":""クリッターカントリー"",""place"":""locality"",""wikidata"":""Q2916471"",""wikipedia"":""ja:クリッターカントリー""}"
12030803672,"ロストリバーデルタ","Lost River Delta","",35.6263243,139.881691,locality,"","","{""name"":""ロストリバーデルタ"",""name:en"":""Lost River Delta"",""name:ja"":""ロストリバーデルタ"",""place"":""locality"",""wikidata"":""Q11350364"",""wikipedia"":""ja:ロストリバーデルタ""}"
12030803673,"アラビアンコースト","Arabian Coast","",35.6278164,139.8817285,locality,"","","{""name"":""アラビアンコースト"",""name:en"":""Arabian Coast"",""name:ja"":""アラビアンコースト"",""place"":""locality"",""wikidata"":""Q2338693"",""wikipedia"":""ja:アラビアンコースト""}"
12030803674,"マーメイドラグーン Mermaid Lagoon","Mermaid Lagoon","",35.6269893,139.8824842,locality,"","","{""name"":""マーメイドラグーン Mermaid Lagoon"",""name:en"":""Mermaid Lagoon"",""name:ja"":""マーメイドラグーン"",""place"":""locality"",""wikidata"":""Q935409"",""wikipedia"":""ja:マーメイドラグーン""}"
12030803675,"ミステリアスアイランド","Mysterious Island","",35.6262272,139.8845498,locality,"","","{""name"":""ミステリアスアイランド"",""name:en"":""Mysterious Island"",""name:ja"":""ミステリアスアイランド"",""place"":""locality"",""wikidata"":""Q1852862"",""wikipedia"":""ja:ミステリアスアイランド""}"
12030803676,"メディテレーニアンハーバー","Mediterranean Harbor","",35.6264517,139.8869221,locality,"","","{""name"":""メディテレーニアンハーバー"",""name:en"":""Mediterranean Harbor"",""name:ja"":""メディテレーニアンハーバー"",""place"":""locality"",""wikidata"":""Q6807052"",""wikipedia"":""ja:メディテレーニアンハーバー""}"
12030803677,"アメリカンウォーターフロント","American Waterfront","",35.623505,139.8858355,locality,"","","{""name"":""アメリカンウォーターフロント"",""name:en"":""American Waterfront"",""name:ja"":""アメリカンウォーターフロント"",""place"":""locality"",""wikidata"":""Q674795"",""wikipedia"":""ja:アメリカンウォーターフロント""}"
12030803678,"ポートディスカバリー","Port Discovery","",35.6242105,139.8833537,locality,"","","{""name"":""ポートディスカバリー"",""name:en"":""Port Discovery"",""name:ja"":""ポートディスカバリー"",""place"":""locality"",""wikidata"":""Q11339450"",""wikipedia"":""ja:ポートディスカバリー""}"
12112280370,"","Yurakucho Yakitori Alley","",35.672258,139.7603098,locality,"","","{""alt_name:en"":""Memory Lane"",""name:en"":""Yurakucho Yakitori Alley"",""note"":""an alley lined with yakitori shops, under the rail tracks"",""place"":""locality""}"
12994026571,"ファンタジースプリングス","Fantasy Springs","",35.6288632,139.8780979,locality,"","","{""name"":""ファンタジースプリングス"",""name:en"":""Fantasy Springs"",""name:ja"":""ファンタジースプリングス"",""place"":""locality"",""wikidata"":""Q65046459"",""wikipedia"":""ja:ファンタジースプリングス""}"